{"type": "Feature", "properties": {"상권_코드": 3001493, "상권_코드_명": "동대문패션타운 관광특구", "면적_m2": 606058, "source": "서울열린데이터광장 서울시 상권분석서비스(영역-상권) OA-15560, EPSG:5181 → WGS84 변환"}, "geometry": {"type": "Polygon", "coordinates": [[[127.0177353, 37.5697609], [127.0177472, 37.5696508], [127.017751, 37.5696095], [127.0177541, 37.5695758], [127.0177592, 37.5695057], [127.0177645, 37.5694403], [127.0177669, 37.5694107], [127.0177736, 37.5693167], [127.0177803, 37.569232], [127.0177804, 37.5692302], [127.0177927, 37.5690827], [127.0177974, 37.5690242], [127.0178071, 37.5689022], [127.0178187, 37.5687519], [127.017819, 37.5687487], [127.0178243, 37.5686676], [127.017836, 37.5684847], [127.0178434, 37.5683895], [127.0178494, 37.568307], [127.0178567, 37.5682304], [127.0178587, 37.5682095], [127.0178662, 37.5681313], [127.0178752, 37.5680269], [127.0178836, 37.5679359], [127.0178972, 37.5677666], [127.0178993, 37.5677389], [127.0179046, 37.5676692], [127.017918, 37.5674981], [127.0179211, 37.567459], [127.0179321, 37.5673278], [127.017935, 37.5672967], [127.0179351, 37.5672952], [127.0179602, 37.5670223], [127.0179675, 37.5669137], [127.0179683, 37.5669024], [127.0179771, 37.5667672], [127.017983, 37.5666827], [127.0179832, 37.566644], [127.0179835, 37.5665633], [127.0179831, 37.5665346], [127.017983, 37.5665029], [127.0179826, 37.5664294], [127.0179935, 37.5663269], [127.0179935, 37.566326], [127.0180099, 37.5661574], [127.0180191, 37.5660936], [127.0180366, 37.5659724], [127.0180582, 37.5658152], [127.0180744, 37.5656991], [127.0180909, 37.5655745], [127.0180916, 37.5655689], [127.0178264, 37.5655401], [127.0177703, 37.5655341], [127.017766, 37.5655336], [127.0174071, 37.5654929], [127.0171747, 37.5654665], [127.0168807, 37.5654331], [127.0162398, 37.5653603], [127.0162288, 37.5653591], [127.0162253, 37.5653392], [127.0162181, 37.5653383], [127.0160287, 37.5653144], [127.0160018, 37.5653116], [127.0159016, 37.5653009], [127.015745, 37.5652843], [127.0156964, 37.5652791], [127.0156616, 37.5652755], [127.0155898, 37.5652678], [127.0154402, 37.5652519], [127.0153982, 37.5652475], [127.015288, 37.5652358], [127.0152302, 37.5652296], [127.0151559, 37.5652218], [127.0149848, 37.5652036], [127.0148628, 37.5651906], [127.0146977, 37.5651731], [127.0146822, 37.5651715], [127.0146386, 37.5651668], [127.0145574, 37.5651582], [127.0145562, 37.5651581], [127.0145291, 37.5651552], [127.0144652, 37.5651484], [127.0144373, 37.5651454], [127.0143945, 37.5651409], [127.0143691, 37.565138], [127.0143431, 37.5651351], [127.0143148, 37.5651319], [127.0142796, 37.5651279], [127.0142312, 37.5651224], [127.0141574, 37.5651141], [127.0141309, 37.5651111], [127.0141088, 37.5651086], [127.0140649, 37.5651036], [127.013988, 37.5650949], [127.0139511, 37.5650908], [127.0139072, 37.5650858], [127.0137024, 37.5650626], [127.0136675, 37.5650587], [127.0136155, 37.5650528], [127.0135677, 37.5650474], [127.0134964, 37.5650393], [127.0134153, 37.5650302], [127.0134115, 37.5650297], [127.0133327, 37.5650208], [127.0133139, 37.5650187], [127.0132366, 37.5650099], [127.0132179, 37.5650078], [127.0131472, 37.5649998], [127.0130876, 37.5649931], [127.0130323, 37.5649868], [127.0130138, 37.5649847], [127.0129587, 37.5649785], [127.0128959, 37.5649714], [127.012835, 37.5649645], [127.0127764, 37.5649579], [127.0126888, 37.564948], [127.0126681, 37.5649456], [127.0126071, 37.5649387], [127.0125908, 37.5649369], [127.0124829, 37.5649247], [127.0123999, 37.5649153], [127.0123596, 37.5649107], [127.0123499, 37.5649096], [127.0122856, 37.5649066], [127.0121834, 37.5649017], [127.0121197, 37.5648987], [127.0120505, 37.5648954], [127.0120109, 37.5648936], [127.0119714, 37.5648917], [127.0119337, 37.5648899], [127.0118953, 37.5648881], [127.0118949, 37.5648881], [127.0118835, 37.5648875], [127.0118156, 37.5648843], [127.0117071, 37.5648792], [127.0116955, 37.5648786], [127.0116118, 37.5648746], [127.0115119, 37.5648699], [127.0114337, 37.5648662], [127.0113446, 37.564862], [127.0112923, 37.5648595], [127.0112529, 37.5648576], [127.0111792, 37.5648449], [127.0109793, 37.5648103], [127.0107721, 37.5647744], [127.0107036, 37.5647626], [127.0105821, 37.5647416], [127.0105726, 37.5647399], [127.0105713, 37.5647397], [127.0105435, 37.5647349], [127.0104392, 37.5647169], [127.010364, 37.5647039], [127.0102735, 37.5646882], [127.0102556, 37.5646851], [127.0102071, 37.5646767], [127.0101875, 37.5646733], [127.0100577, 37.5646509], [127.0100525, 37.56465], [127.0100487, 37.5646493], [127.0098984, 37.5646233], [127.0097925, 37.564605], [127.0097695, 37.564601], [127.0097251, 37.5645934], [127.0096482, 37.5645801], [127.0096004, 37.5645718], [127.0095295, 37.5645595], [127.0094502, 37.5645458], [127.0094438, 37.5645447], [127.0094297, 37.5645423], [127.0093974, 37.5645368], [127.0093583, 37.5645301], [127.0093203, 37.5645236], [127.0092212, 37.5645068], [127.0092035, 37.5645038], [127.0091506, 37.5644948], [127.0091283, 37.5646432], [127.0091474, 37.5646761], [127.0091839, 37.5647052], [127.0091958, 37.5647431], [127.0092038, 37.5648025], [127.0091872, 37.5648484], [127.0091252, 37.5648329], [127.00897, 37.5648278], [127.0088917, 37.5648253], [127.008527, 37.5647723], [127.0085282, 37.5647917], [127.0084151, 37.5648293], [127.0081122, 37.5649301], [127.0080781, 37.5649385], [127.0079677, 37.5649658], [127.0078281, 37.5649791], [127.0078032, 37.5649856], [127.0074096, 37.5650896], [127.0074119, 37.5650966], [127.0074153, 37.5651067], [127.0074196, 37.5651195], [127.0074467, 37.5652003], [127.0074526, 37.5652178], [127.00749, 37.5653293], [127.0072168, 37.5653888], [127.0071677, 37.5654032], [127.0071409, 37.5653639], [127.0070996, 37.5653109], [127.0070433, 37.565239], [127.0069507, 37.5651549], [127.0068925, 37.565102], [127.0068502, 37.5650543], [127.006796, 37.5649619], [127.0067686, 37.5649372], [127.0067142, 37.5649182], [127.0067159, 37.5649453], [127.0066901, 37.56506], [127.0066754, 37.5651471], [127.0066638, 37.5652275], [127.0066607, 37.5652495], [127.0066516, 37.5652519], [127.0066499, 37.5652525], [127.0065272, 37.5652919], [127.0064818, 37.5653065], [127.0064737, 37.5652796], [127.0064673, 37.5652584], [127.0064426, 37.565177], [127.0064294, 37.5651334], [127.0064245, 37.5651174], [127.0064017, 37.565042], [127.0063979, 37.5650295], [127.0063946, 37.5650188], [127.0063457, 37.5650315], [127.006151, 37.5650886], [127.0061493, 37.5650906], [127.006136, 37.5651058], [127.006105, 37.5651419], [127.0060876, 37.5651522], [127.0059968, 37.5651839], [127.0059708, 37.5651929], [127.005873, 37.5651925], [127.0058769, 37.5651031], [127.0058723, 37.5650549], [127.0058563, 37.564967], [127.0058528, 37.5649552], [127.0058151, 37.5649621], [127.0057441, 37.5649874], [127.0057096, 37.5650012], [127.0056489, 37.5650228], [127.0055945, 37.5650378], [127.0055598, 37.5650481], [127.0055471, 37.5650015], [127.0055334, 37.5649509], [127.0055021, 37.5648353], [127.0054597, 37.5646789], [127.0054023, 37.5646861], [127.0053917, 37.5646874], [127.0053445, 37.5646934], [127.0053392, 37.564694], [127.0052408, 37.5647065], [127.0051063, 37.5647234], [127.0050452, 37.5647311], [127.005037, 37.5647321], [127.0049913, 37.5647379], [127.0049508, 37.564743], [127.0049423, 37.5647441], [127.0049391, 37.5647444], [127.0048928, 37.5647494], [127.004872, 37.5647516], [127.0048333, 37.5647557], [127.0047779, 37.5647616], [127.0047583, 37.5647637], [127.0046849, 37.5647716], [127.0046444, 37.564769], [127.0046236, 37.5647677], [127.0045768, 37.5647647], [127.004468, 37.5648491], [127.0044277, 37.5648804], [127.0043498, 37.5649094], [127.0041271, 37.5649984], [127.0040669, 37.5650188], [127.0041205, 37.5651282], [127.0041587, 37.5652063], [127.0041618, 37.5652125], [127.0041767, 37.5652494], [127.0041857, 37.5652718], [127.0041952, 37.5652952], [127.0042005, 37.5653084], [127.0042018, 37.5653116], [127.0042318, 37.5653857], [127.0042347, 37.565393], [127.0042508, 37.5654329], [127.004266, 37.5654705], [127.0042728, 37.5654873], [127.0042771, 37.5654978], [127.0042816, 37.5655137], [127.0042842, 37.5655226], [127.0042848, 37.5655246], [127.0043056, 37.5655972], [127.0043102, 37.5656132], [127.0043104, 37.5656137], [127.0043348, 37.5656988], [127.0043392, 37.565714], [127.0043529, 37.5657617], [127.004362, 37.5657932], [127.0043734, 37.5658329], [127.0043763, 37.5658429], [127.0043819, 37.5658624], [127.0043847, 37.5658722], [127.0043946, 37.5658985], [127.004397, 37.5659049], [127.0044324, 37.5659988], [127.0044329, 37.5660002], [127.0044426, 37.5660258], [127.0044636, 37.5660815], [127.0046215, 37.5660672], [127.0047257, 37.5660577], [127.0047688, 37.5660538], [127.0047695, 37.5660563], [127.0047991, 37.5661715], [127.0048295, 37.5662894], [127.0048358, 37.5663116], [127.0048592, 37.5663934], [127.0049011, 37.56654], [127.0044645, 37.5666095], [127.0044464, 37.5666124], [127.0044131, 37.5666177], [127.0041073, 37.5666664], [127.0040844, 37.56667], [127.0040916, 37.5666838], [127.0040695, 37.5667317], [127.0040942, 37.5668024], [127.00412, 37.5668794], [127.0043164, 37.5668454], [127.0043387, 37.566847], [127.0043589, 37.5668496], [127.0043788, 37.5668546], [127.0043935, 37.5668617], [127.0044088, 37.5668715], [127.0044118, 37.5668734], [127.0044575, 37.5669544], [127.0045211, 37.567067], [127.0046438, 37.5672824], [127.004651, 37.5672951], [127.0046657, 37.5673109], [127.0047512, 37.5674025], [127.0048157, 37.5674716], [127.0048547, 37.5675437], [127.0048684, 37.5675523], [127.0049073, 37.5676187], [127.0049148, 37.5676319], [127.0049305, 37.5676599], [127.0048147, 37.5676666], [127.0047051, 37.5676729], [127.0046883, 37.5676754], [127.0047251, 37.567761], [127.0048822, 37.567999], [127.0049063, 37.5680827], [127.0049062, 37.5680832], [127.0048979, 37.5681528], [127.0049517, 37.5683582], [127.00496, 37.5683897], [127.0049764, 37.5684524], [127.0049718, 37.5684715], [127.0049697, 37.5684858], [127.0049518, 37.5686093], [127.0049244, 37.5687664], [127.0049868, 37.5688439], [127.0050733, 37.5689153], [127.0051213, 37.5689628], [127.0052822, 37.5691265], [127.0052952, 37.5691318], [127.005313, 37.5691391], [127.0053541, 37.5691558], [127.0053672, 37.5691899], [127.0053767, 37.5692144], [127.0053912, 37.569252], [127.0054041, 37.5692852], [127.0054327, 37.5692963], [127.0054572, 37.5693093], [127.0054612, 37.5693114], [127.0054642, 37.569313], [127.0055118, 37.5693077], [127.005523, 37.5693064], [127.005562, 37.5693051], [127.0055686, 37.5693049], [127.0056488, 37.5693023], [127.0058207, 37.5692984], [127.0058279, 37.5693002], [127.005829, 37.5693002], [127.0058586, 37.5692996], [127.0058771, 37.5692966], [127.0059308, 37.5692879], [127.0059489, 37.5692891], [127.0059515, 37.5692892], [127.0061675, 37.5692955], [127.0063951, 37.5693001], [127.0064232, 37.5693032], [127.0064267, 37.5693036], [127.0064281, 37.5693037], [127.0064303, 37.5693059], [127.00648, 37.5693059], [127.0065119, 37.569306], [127.0065261, 37.5693047], [127.006549, 37.5693029], [127.0065494, 37.5693028], [127.0065759, 37.5693405], [127.0065953, 37.5693681], [127.0065954, 37.5694878], [127.006675, 37.5696323], [127.0067339, 37.5696353], [127.0069056, 37.569644], [127.006942, 37.5696457], [127.0072724, 37.5696578], [127.0075815, 37.5696758], [127.0078101, 37.5696873], [127.0079894, 37.5696952], [127.0081047, 37.5697003], [127.0081516, 37.5697022], [127.0081726, 37.5697031], [127.0082363, 37.5697056], [127.0082938, 37.5697079], [127.0083741, 37.569711], [127.0084181, 37.5697127], [127.0084615, 37.5697143], [127.0085554, 37.569718], [127.0088122, 37.5697281], [127.0088221, 37.5697284], [127.0088293, 37.5697287], [127.0088361, 37.569729], [127.0088596, 37.5697301], [127.0088812, 37.5697309], [127.0088921, 37.5697312], [127.008951, 37.5697337], [127.008983, 37.5697352], [127.0089887, 37.5697354], [127.0089961, 37.5697357], [127.0090179, 37.5697368], [127.0090651, 37.5697388], [127.009084, 37.5697394], [127.0091367, 37.5697416], [127.0091641, 37.5697427], [127.0092777, 37.5697461], [127.0095982, 37.5697559], [127.0096725, 37.5697587], [127.0096808, 37.569759], [127.0097052, 37.5697599], [127.009765, 37.5697618], [127.0097837, 37.5697627], [127.0098351, 37.5697649], [127.0098631, 37.5697658], [127.0100351, 37.5697708], [127.0100354, 37.5697708], [127.01004, 37.5697708], [127.0102434, 37.5697697], [127.0108055, 37.569768], [127.0113258, 37.569765], [127.0116129, 37.5697634], [127.0121289, 37.5697549], [127.0121999, 37.5697514], [127.0124305, 37.5697399], [127.0124839, 37.5697371], [127.0126489, 37.5697253], [127.0126496, 37.5697253], [127.0129073, 37.569707], [127.0130805, 37.5696951], [127.0131949, 37.5696979], [127.013703, 37.5697046], [127.0140094, 37.5697083], [127.0140847, 37.5697094], [127.0140915, 37.5697095], [127.0141907, 37.5697109], [127.0142213, 37.5697113], [127.0144075, 37.5697138], [127.0144565, 37.5697147], [127.0145336, 37.5697166], [127.014613, 37.5697183], [127.0146537, 37.5697194], [127.0147018, 37.5697206], [127.0147455, 37.5697214], [127.0148405, 37.5697239], [127.0149374, 37.5697259], [127.0149912, 37.5697281], [127.0151052, 37.5697318], [127.0151663, 37.5697338], [127.015208, 37.5697346], [127.0152572, 37.569736], [127.0152906, 37.5697104], [127.0152985, 37.5697045], [127.0155923, 37.5697292], [127.0158796, 37.5697615], [127.0158865, 37.5697626], [127.015889, 37.5697629], [127.0160755, 37.5697905], [127.0161079, 37.5697953], [127.0161889, 37.5698099], [127.0162174, 37.5698153], [127.0162342, 37.5698184], [127.0162513, 37.5698215], [127.0162954, 37.5698293], [127.0164013, 37.5698485], [127.0166064, 37.5698857], [127.016682, 37.5698994], [127.017054, 37.5699791], [127.0170775, 37.5699841], [127.0172767, 37.5700547], [127.0173339, 37.5700769], [127.0173342, 37.570077], [127.0173627, 37.5700844], [127.0176031, 37.5701451], [127.0176892, 37.5701668], [127.0176969, 37.5700991], [127.0177034, 37.5700406], [127.0177111, 37.5699685], [127.0177122, 37.5699605], [127.0177168, 37.5699254], [127.0177249, 37.5698634], [127.0177252, 37.5698607], [127.0177353, 37.5697609]]]}}